STARLINK-37101          
1 68234U 26054C   26091.50001156 -.00054394  00000+0 -35259-3 0  9999
2 68234  53.1597 198.3848 0001607  89.4509 176.6527 15.75260612  3580
STARLINK-36963          
1 68235U 26054D   26091.50001156 -.00021252  00000+0 -13470-3 0  9998
2 68235  53.1599 198.4369 0001289  74.3792 165.9750 15.75256888  3584
STARLINK-37127          
1 68236U 26054E   26091.46674924  .00184103  00000+0  11763-2 0  9998
2 68236  53.1599 198.7069 0001015  85.1041 275.0095 15.75295918  2377
STARLINK-37095          
1 68237U 26054F   26091.46221013  .00202424  00000+0  12896-2 0  9991
2 68237  53.1604 198.6768 0001239  54.2968 305.8168 15.75304830  2370
STARLINK-37097          
1 68238U 26054G   26091.38343804  .00239538  00000+0  11799-2 0  9993
2 68238  53.1589 198.8897 0001150  73.2390 286.8759 15.80945085  2362
STARLINK-37096          
1 68239U 26054H   26091.38193845  .00223553  00000+0  11039-2 0  9999
2 68239  53.1590 198.8796 0001029  92.4513 267.6627 15.80936453  2368
STARLINK-37092          
1 68240U 26054J   26091.38268423  .00296801  00000+0  14489-2 0  9994
2 68240  53.1592 198.8849 0001009 112.0574 248.0556 15.80981498  2368
STARLINK-37094          
1 68241U 26054K   26091.38118755  .00208731  00000+0  10325-2 0  9997
2 68241  53.1591 198.8746 0001049  73.4185 286.6953 15.80939967  2369
STARLINK-36356          
1 68242U 26054L   26091.38193987  .00503313  00000+0  24713-2 0  9998
2 68242  53.1595 198.8802 0002683  68.5365 291.5943 15.80305959  2369
STARLINK-36345          
1 68243U 26054M   26091.45734200  .00278525  00000+0  17550-2 0  9991
2 68243  53.1603 198.6439 0000873  78.8512 281.2607 15.75329312  2378
STARLINK-36310          
1 68244U 26054N   26091.31496818  .00490251  00000+0  23156-2 0  9998
2 68244  53.1592 199.1713 0001110 144.3625 215.7472 15.81185054  2356
STARLINK-36247          
1 68245U 26054P   26091.31571936  .00494218  00000+0  23581-2 0  9993
2 68245  53.1590 199.1766 0002567 315.0224  45.0590 15.80956020  2355
