CCSDS_OMM_VERS = 2.0
CREATION_DATE  = 
ORIGINATOR     = 

OBJECT_NAME    = STARLINK-37101
OBJECT_ID      = 2026-054C
CENTER_NAME    = EARTH
REF_FRAME      = TEME
TIME_SYSTEM    = UTC
MEAN_ELEMENT_THEORY = SGP/SGP4

EPOCH          = 2026-04-01T12:00:00.998784
MEAN_MOTION    = 15.75260612
ECCENTRICITY   = .0001607
INCLINATION    = 53.1597
RA_OF_ASC_NODE = 198.3848
ARG_OF_PERICENTER = 89.4509
MEAN_ANOMALY   = 176.6527

EPHEMERIS_TYPE = 0
CLASSIFICATION_TYPE = U
NORAD_CAT_ID   = 68234
ELEMENT_SET_NO = 999
REV_AT_EPOCH   = 358
BSTAR          = -.35259E-3
MEAN_MOTION_DOT = -.54394E-3
MEAN_MOTION_DDOT = 0

CCSDS_OMM_VERS = 2.0
CREATION_DATE  = 
ORIGINATOR     = 

OBJECT_NAME    = STARLINK-36963
OBJECT_ID      = 2026-054D
CENTER_NAME    = EARTH
REF_FRAME      = TEME
TIME_SYSTEM    = UTC
MEAN_ELEMENT_THEORY = SGP/SGP4

EPOCH          = 2026-04-01T12:00:00.998784
MEAN_MOTION    = 15.75256888
ECCENTRICITY   = .0001289
INCLINATION    = 53.1599
RA_OF_ASC_NODE = 198.4369
ARG_OF_PERICENTER = 74.3792
MEAN_ANOMALY   = 165.9750

EPHEMERIS_TYPE = 0
CLASSIFICATION_TYPE = U
NORAD_CAT_ID   = 68235
ELEMENT_SET_NO = 999
REV_AT_EPOCH   = 358
BSTAR          = -.1347E-3
MEAN_MOTION_DOT = -.21252E-3
MEAN_MOTION_DDOT = 0

CCSDS_OMM_VERS = 2.0
CREATION_DATE  = 
ORIGINATOR     = 

OBJECT_NAME    = STARLINK-37127
OBJECT_ID      = 2026-054E
CENTER_NAME    = EARTH
REF_FRAME      = TEME
TIME_SYSTEM    = UTC
MEAN_ELEMENT_THEORY = SGP/SGP4

EPOCH          = 2026-04-01T11:12:07.134336
MEAN_MOTION    = 15.75295918
ECCENTRICITY   = .0001015
INCLINATION    = 53.1599
RA_OF_ASC_NODE = 198.7069
ARG_OF_PERICENTER = 85.1041
MEAN_ANOMALY   = 275.0095

EPHEMERIS_TYPE = 0
CLASSIFICATION_TYPE = U
NORAD_CAT_ID   = 68236
ELEMENT_SET_NO = 999
REV_AT_EPOCH   = 237
BSTAR          = .11763E-2
MEAN_MOTION_DOT = .184103E-2
MEAN_MOTION_DDOT = 0

CCSDS_OMM_VERS = 2.0
CREATION_DATE  = 
ORIGINATOR     = 

OBJECT_NAME    = STARLINK-37095
OBJECT_ID      = 2026-054F
CENTER_NAME    = EARTH
REF_FRAME      = TEME
TIME_SYSTEM    = UTC
MEAN_ELEMENT_THEORY = SGP/SGP4

EPOCH          = 2026-04-01T11:05:34.955232
MEAN_MOTION    = 15.75304830
ECCENTRICITY   = .0001239
INCLINATION    = 53.1604
RA_OF_ASC_NODE = 198.6768
ARG_OF_PERICENTER = 54.2968
MEAN_ANOMALY   = 305.8168

EPHEMERIS_TYPE = 0
CLASSIFICATION_TYPE = U
NORAD_CAT_ID   = 68237
ELEMENT_SET_NO = 999
REV_AT_EPOCH   = 237
BSTAR          = .12896E-2
MEAN_MOTION_DOT = .202424E-2
MEAN_MOTION_DDOT = 0

CCSDS_OMM_VERS = 2.0
CREATION_DATE  = 
ORIGINATOR     = 

OBJECT_NAME    = STARLINK-37097
OBJECT_ID      = 2026-054G
CENTER_NAME    = EARTH
REF_FRAME      = TEME
TIME_SYSTEM    = UTC
MEAN_ELEMENT_THEORY = SGP/SGP4

EPOCH          = 2026-04-01T09:12:09.046656
MEAN_MOTION    = 15.80945085
ECCENTRICITY   = .000115
INCLINATION    = 53.1589
RA_OF_ASC_NODE = 198.8897
ARG_OF_PERICENTER = 73.2390
MEAN_ANOMALY   = 286.8759

EPHEMERIS_TYPE = 0
CLASSIFICATION_TYPE = U
NORAD_CAT_ID   = 68238
ELEMENT_SET_NO = 999
REV_AT_EPOCH   = 236
BSTAR          = .11799E-2
MEAN_MOTION_DOT = .239538E-2
MEAN_MOTION_DDOT = 0

CCSDS_OMM_VERS = 2.0
CREATION_DATE  = 
ORIGINATOR     = 

OBJECT_NAME    = STARLINK-37096
OBJECT_ID      = 2026-054H
CENTER_NAME    = EARTH
REF_FRAME      = TEME
TIME_SYSTEM    = UTC
MEAN_ELEMENT_THEORY = SGP/SGP4

EPOCH          = 2026-04-01T09:09:59.482080
MEAN_MOTION    = 15.80936453
ECCENTRICITY   = .0001029
INCLINATION    = 53.1590
RA_OF_ASC_NODE = 198.8796
ARG_OF_PERICENTER = 92.4513
MEAN_ANOMALY   = 267.6627

EPHEMERIS_TYPE = 0
CLASSIFICATION_TYPE = U
NORAD_CAT_ID   = 68239
ELEMENT_SET_NO = 999
REV_AT_EPOCH   = 236
BSTAR          = .11039E-2
MEAN_MOTION_DOT = .223553E-2
MEAN_MOTION_DDOT = 0

CCSDS_OMM_VERS = 2.0
CREATION_DATE  = 
ORIGINATOR     = 

OBJECT_NAME    = STARLINK-37092
OBJECT_ID      = 2026-054J
CENTER_NAME    = EARTH
REF_FRAME      = TEME
TIME_SYSTEM    = UTC
MEAN_ELEMENT_THEORY = SGP/SGP4

EPOCH          = 2026-04-01T09:11:03.917472
MEAN_MOTION    = 15.80981498
ECCENTRICITY   = .0001009
INCLINATION    = 53.1592
RA_OF_ASC_NODE = 198.8849
ARG_OF_PERICENTER = 112.0574
MEAN_ANOMALY   = 248.0556

EPHEMERIS_TYPE = 0
CLASSIFICATION_TYPE = U
NORAD_CAT_ID   = 68240
ELEMENT_SET_NO = 999
REV_AT_EPOCH   = 236
BSTAR          = .14489E-2
MEAN_MOTION_DOT = .296801E-2
MEAN_MOTION_DDOT = 0

CCSDS_OMM_VERS = 2.0
CREATION_DATE  = 
ORIGINATOR     = 

OBJECT_NAME    = STARLINK-37094
OBJECT_ID      = 2026-054K
CENTER_NAME    = EARTH
REF_FRAME      = TEME
TIME_SYSTEM    = UTC
MEAN_ELEMENT_THEORY = SGP/SGP4

EPOCH          = 2026-04-01T09:08:54.604320
MEAN_MOTION    = 15.80939967
ECCENTRICITY   = .0001049
INCLINATION    = 53.1591
RA_OF_ASC_NODE = 198.8746
ARG_OF_PERICENTER = 73.4185
MEAN_ANOMALY   = 286.6953

EPHEMERIS_TYPE = 0
CLASSIFICATION_TYPE = U
NORAD_CAT_ID   = 68241
ELEMENT_SET_NO = 999
REV_AT_EPOCH   = 236
BSTAR          = .10325E-2
MEAN_MOTION_DOT = .208731E-2
MEAN_MOTION_DDOT = 0

CCSDS_OMM_VERS = 2.0
CREATION_DATE  = 
ORIGINATOR     = 

OBJECT_NAME    = STARLINK-36356
OBJECT_ID      = 2026-054L
CENTER_NAME    = EARTH
REF_FRAME      = TEME
TIME_SYSTEM    = UTC
MEAN_ELEMENT_THEORY = SGP/SGP4

EPOCH          = 2026-04-01T09:09:59.604768
MEAN_MOTION    = 15.80305959
ECCENTRICITY   = .0002683
INCLINATION    = 53.1595
RA_OF_ASC_NODE = 198.8802
ARG_OF_PERICENTER = 68.5365
MEAN_ANOMALY   = 291.5943

EPHEMERIS_TYPE = 0
CLASSIFICATION_TYPE = U
NORAD_CAT_ID   = 68242
ELEMENT_SET_NO = 999
REV_AT_EPOCH   = 236
BSTAR          = .24713E-2
MEAN_MOTION_DOT = .503313E-2
MEAN_MOTION_DDOT = 0

CCSDS_OMM_VERS = 2.0
CREATION_DATE  = 
ORIGINATOR     = 

OBJECT_NAME    = STARLINK-36345
OBJECT_ID      = 2026-054M
CENTER_NAME    = EARTH
REF_FRAME      = TEME
TIME_SYSTEM    = UTC
MEAN_ELEMENT_THEORY = SGP/SGP4

EPOCH          = 2026-04-01T10:58:34.348800
MEAN_MOTION    = 15.75329312
ECCENTRICITY   = .0000873
INCLINATION    = 53.1603
RA_OF_ASC_NODE = 198.6439
ARG_OF_PERICENTER = 78.8512
MEAN_ANOMALY   = 281.2607

EPHEMERIS_TYPE = 0
CLASSIFICATION_TYPE = U
NORAD_CAT_ID   = 68243
ELEMENT_SET_NO = 999
REV_AT_EPOCH   = 237
BSTAR          = .1755E-2
MEAN_MOTION_DOT = .278525E-2
MEAN_MOTION_DDOT = 0

CCSDS_OMM_VERS = 2.0
CREATION_DATE  = 
ORIGINATOR     = 

OBJECT_NAME    = STARLINK-36310
OBJECT_ID      = 2026-054N
CENTER_NAME    = EARTH
REF_FRAME      = TEME
TIME_SYSTEM    = UTC
MEAN_ELEMENT_THEORY = SGP/SGP4

EPOCH          = 2026-04-01T07:33:33.250752
MEAN_MOTION    = 15.81185054
ECCENTRICITY   = .000111
INCLINATION    = 53.1592
RA_OF_ASC_NODE = 199.1713
ARG_OF_PERICENTER = 144.3625
MEAN_ANOMALY   = 215.7472

EPHEMERIS_TYPE = 0
CLASSIFICATION_TYPE = U
NORAD_CAT_ID   = 68244
ELEMENT_SET_NO = 999
REV_AT_EPOCH   = 235
BSTAR          = .23156E-2
MEAN_MOTION_DOT = .490251E-2
MEAN_MOTION_DDOT = 0

CCSDS_OMM_VERS = 2.0
CREATION_DATE  = 
ORIGINATOR     = 

OBJECT_NAME    = STARLINK-36247
OBJECT_ID      = 2026-054P
CENTER_NAME    = EARTH
REF_FRAME      = TEME
TIME_SYSTEM    = UTC
MEAN_ELEMENT_THEORY = SGP/SGP4

EPOCH          = 2026-04-01T07:34:38.152704
MEAN_MOTION    = 15.80956020
ECCENTRICITY   = .0002567
INCLINATION    = 53.1590
RA_OF_ASC_NODE = 199.1766
ARG_OF_PERICENTER = 315.0224
MEAN_ANOMALY   = 45.0590

EPHEMERIS_TYPE = 0
CLASSIFICATION_TYPE = U
NORAD_CAT_ID   = 68245
ELEMENT_SET_NO = 999
REV_AT_EPOCH   = 235
BSTAR          = .23581E-2
MEAN_MOTION_DOT = .494218E-2
MEAN_MOTION_DDOT = 0

